#dP2021  8 22 18  0  0.00000000      96 __u+U ITR00 EXT  IAC
## 2172  64800.00000000   900.00000000 59448 0.7500000000000
+  113   C06C08C09C10C11C12C13C14C16C19C20C21C22C23C24C25C26
+        C27C28C29C30C32C33C34C35C36C37C38C39C41C42C43C44C45
+        C46E01E02E03E04E05E07E08E09E11E12E13E14E15E18E19E21
+        E24E25E26E27E30E31E33E36G01G02G03G04G05G06G07G08G09
+        G10G12G13G14G15G16G17G18G19G20G21G22G23G24G25G26G27
+        G28G29G30G31G32J02J03R01R02R03R04R05R07R08R09R11R12
+        R13R14R15R16R17R18R19R20R21R22R24  0  0  0  0  0  0
++         9  9  9 10  7  8  9  8  8  9  9  8  7  8  7  9  7
++         8  9  8  9  8  9  9  7  7  9  9  9  9  7  9  8 10
++         8  7  7  9  7  9  8  9  7  7  9  9  8  9  8  8  9
++         8  7  7  8  8  8 10  9  8  7  7  7  7  6  7  8  8
++         7  8  9  8  8  7  8  9  7  7  8  7  7  7  8  8  9
++         8  7  7  7  8  8 11  8  9  7  9  8  8  9  8  8  6
++        10  9  9  8  9  8 10  8  9 10 10  0  0  0  0  0  0
%c M  cc GPS ccc cccc cccc cccc cccc ccccc ccccc ccccc ccccc
%c cc cc ccc ccc cccc cccc cccc cccc ccccc ccccc ccccc ccccc
%f  0.0000000  0.000000000  0.00000000000  0.000000000000000
%f  0.0000000  0.000000000  0.00000000000  0.000000000000000
%i    0    0    0    0      0      0      0      0         0
%i    0    0    0    0      0      0      0      0         0
/* IAC                                ULTRA-RAPID PREDICTION
/* S/V CLOCKS ARE ALIGNED TO GNSS TIME                      
/* G:C1WC2W R:C1PC2P E:C1XC5X C:C2IC6I J:C1CC2S             
/* PCV:IGS14_2163 OL/AL:FES2004  NONE     YN ORB:CoN CLK:CoN
*  2021 08 23  9 45  0.00000000
PC06  -1051.832220  34384.528959  24493.954610    795.949793
PC08 -20190.289855  36773.111307    454.366032   -927.058104
PC09   6198.396366  38650.562671  16560.585036    -48.829806
PC10  -6528.446701  26637.086980 -31846.936294     -6.116755
PC11  10979.237266  25599.649638  -1101.992597    533.040769
PC12  -2057.260293  21915.780593 -17104.032946    775.191949
PC13  -9420.856854  38171.414922  14970.967821    383.531681
PC14  10980.727871  15110.244553  20732.534940    699.059073
PC16  -2435.657421  32947.058342  26461.403138   -846.108034
PC19 -20541.210220 -11598.076767 -14904.478211    957.449299
PC20  -1985.776348 -15905.617923 -22836.176385   -814.290012
PC21 -18851.768787  10871.321164  17494.075490   -937.273813
PC22 -27851.195491   -489.762729   1927.476719   -950.329220
PC23  19864.071450  -5075.067826 -18916.942423   -961.080963
PC24  -6167.440463  24405.187142 -12019.692654   -964.144238
PC25  10669.148293  12918.560409 -22314.120642   -866.052613
PC26 -17265.765738  21535.744902   3978.992283    860.451526
PC27   9362.038189 -15020.738704  21551.165222    585.458271
PC28  18030.712695   4550.001557  20803.112384    -35.195794
PC29 -16903.173652 -20791.015301  -7812.635048    437.159543
PC30  -5260.100601 -25431.507475  10186.146128    478.341864
PC32  18789.104270 -10995.177726 -17443.895361   -934.564400
PC33  20495.541269  11562.428997  14986.137295   -962.588532
PC34   5800.347525  25613.313338  -9473.663278   -598.693505
PC35 -18325.207519  -4300.214829 -20601.672379   -126.543276
PC36 -10070.232647 -13531.113276  22263.958872   -747.432687
PC37  18151.312457 -20640.160391  -4850.467332   -861.891596
PC38 -18292.431627  37814.177704   2483.787261    170.516389
PC39  -6330.726055  28619.942562  30359.511824     32.888623
PC41  27855.768069    659.626532  -1530.839925   -953.111471
PC42    964.334918  15966.059460  22904.173097   -938.115518
PC43  16617.658326  21224.979304   7240.451329   -880.728426
PC44  -9096.154969  15238.921079 -21553.199202    355.227795
PC45 -19815.754237   5305.502060  18923.423797    528.090876
PC46   5263.559180 -24156.397009  12988.816254    119.177952
PE01  -4949.837018  19342.797491 -21842.825118  -1177.622554
PE02   4798.177800 -19319.202538  21917.096019    241.831159
PE03  -6762.861832 -20782.114777 -19972.953681   -466.736283
PE04  22906.538879  18135.232992   4747.711529   -841.001695
PE05  13647.918882 -11259.408689 -23728.963148   -255.068663
PE07 -25864.757534  -4707.312455  13620.361082   -577.132941
PE08 -23209.809161 -17845.643887  -4414.421704   5949.598924
PE09  25773.300288   4495.484571 -13827.958188   5556.628485
PE11  16182.921157  -1534.430528  24722.236292   5537.148897
PE12  11426.708565  20328.354089  18228.362464   5046.367573
PE13 -16112.966570   1030.722795 -24811.290540    420.614551
PE14 -20326.971437 -20879.330875    401.979538  -1545.265898
PE15 -11446.459441 -20274.672677 -18280.943110    796.409094
PE18   9230.097114  23613.042416 -11797.822202  -1695.088074
PE19   4355.584439  20148.965762  21246.386314    359.236955
PE21 -21857.802542  18114.643071  -8379.786854   -683.641963
PE24  26803.713606  -5457.665024 -11337.115468  -1078.006745
PE25  21984.055047 -18048.779332   8205.802842   -544.171937
PE26 -11056.163639  22345.052101 -15952.403960   1429.021538
PE27 -26934.921180   6326.993541  10524.976528   -104.117340
PE30 -15129.566218  -9984.809129  23397.910388   2679.218731
PE31  16144.530195   9070.349649 -23076.340612   -484.739603
PE33     49.399756  29582.576226   1001.274229   -465.914376
PE36  11281.131840 -21666.447200  16715.259113   -252.270169
PG01  13371.213168 -17734.047744  14032.794921    589.272249
PG02 -13955.356929  -6230.511561 -21066.084733   -628.044118
PG03  22448.743133 -12376.606825  -6842.825403   -263.972785
PG04  12412.867655  -9068.479788 -21658.901538   -204.107251
PG05 -25529.654824   5287.350043  -5674.003288    -52.025227
PG06  -7703.189766 -18727.629176 -17097.352951     60.919493
PG07   5782.711195 -25631.557362   -425.979467    230.786368
PG08  19877.169928    917.840589  17730.426175    -33.715000
PG09   1106.250254 -17631.311521 -19892.058412   -359.500155
PG10   5588.206217  14009.222465  21984.284888   -188.213275
PG12 -23337.278059  10697.212302  -6782.389938    -86.900989
PG13 -20675.916211  -9768.796071  13494.777678    175.230644
PG14  -5337.834675 -14397.013347  21670.711459     17.483137
PG15 -20040.688040   1637.597457  17138.529789   -126.374249
PG16  24778.761435   1423.619878 -10317.589148   -378.369833
PG17 -10520.429501 -21628.412569  11688.986915    493.644340
PG18  -4909.102148  26013.607794   1440.173436    330.094926
PG19 -16756.596876 -20570.383848   2168.943813     43.312741
PG20 -21047.729270  -2370.619075 -15893.445307    519.508399
PG21  15360.983893  -9636.651806  19921.442191    138.783744
PG22  24526.591730  -9812.831638   1507.187337   -531.315559
PG23  -7434.665585  16783.307022  19147.573146     67.090099
PG24 -14533.243983  13637.330964  17104.816474    216.254647
PG25 -14970.204475  16086.711961 -14984.838501    195.945271
PG26  17303.731635   7949.298969 -18681.013113    125.885062
PG27  22272.571716  10509.177185  10233.247134   -182.415397
PG28 -11527.275005 -12148.455646  21119.513608    514.741078
PG29  -4275.705380  15685.766751 -21034.704275   -400.547217
PG30  -2446.241936 -24139.115603  10592.656838   -465.226669
PG31   9318.624784  16816.614094 -18210.052756   -135.801598
PG32  14433.233464  20718.035779   8638.519384      5.606114
PJ02 -36161.660329  21156.433019   -441.316056     -1.782668
PJ03 -19878.298560  24061.148477 -23743.471816     -1.095780
PR01   1127.728246 -11076.696109 -22952.268698     84.268543
PR02 -18813.219668 -11278.021407 -12929.013567    490.682938
PR03 -24765.175322  -4333.930981   4179.653019     41.669608
PR04 -16682.928694   4711.138489  18732.874553    101.333081
PR05    624.488480  11239.797940  22899.267571     77.636592
PR07  24749.153239   4090.598977  -4725.520165    -41.578424
PR08  16695.908316  -4807.886235 -18633.973101    -60.559348
PR09   6535.942829   9432.814859 -22762.448073      9.476897
PR11  18399.361759 -17414.140172  -2894.586362     47.004664
PR12   8679.517465 -19006.623534  14675.360023    255.952059
PR13  -5731.567467  -9828.692894  22821.263374    -59.573551
PR14 -17505.099900   5819.745579  17645.565830     67.965095
PR15 -18523.194959  17388.983224   2334.854470    101.900931
PR16  -7163.269196  18881.443373 -15516.077767    -20.128637
PR17 -11953.095487  -6564.662338 -21564.779101    452.214361
PR18  -7034.342601  11393.909557 -21711.328151     87.901422
PR19    417.500018  22921.104394 -11177.948195   -156.498835
PR20   9302.521281  22068.098204   8831.810667    -54.632887
PR21  11680.033649   5184.125117  22064.019461   -233.655898
PR22   6656.648449 -12189.117470  21354.724166   -129.345309
PR24 -10088.601695 -21469.287763  -9398.297049     55.629506
EOF
